[{"OBJECT_NAME":"STARLINK-1712","OBJECT_ID":"2020-070BB","EPOCH":"2026-03-15T03:09:05.740416","MEAN_MOTION":16.17437127,"ECCENTRICITY":0.00010745,"INCLINATION":53.022,"RA_OF_ASC_NODE":51.7636,"ARG_OF_PERICENTER":63.8722,"MEAN_ANOMALY":296.2425,"EPHEMERIS_TYPE":0,"CLASSIFICATION_TYPE":"U","NORAD_CAT_ID":46581,"ELEMENT_SET_NO":999,"REV_AT_EPOCH":30173,"BSTAR":0.0013256939,"MEAN_MOTION_DOT":0.0199131,"MEAN_MOTION_DDOT":0.0044059536},{"OBJECT_NAME":"STARLINK-1814","OBJECT_ID":"2020-073AU","EPOCH":"2026-03-15T05:55:48.840384","MEAN_MOTION":16.01056816,"ECCENTRICITY":0.00105663,"INCLINATION":53.0346,"RA_OF_ASC_NODE":156.1506,"ARG_OF_PERICENTER":1.4798,"MEAN_ANOMALY":358.6261,"EPHEMERIS_TYPE":0,"CLASSIFICATION_TYPE":"U","NORAD_CAT_ID":46712,"ELEMENT_SET_NO":999,"REV_AT_EPOCH":29881,"BSTAR":0.0011572494,"MEAN_MOTION_DOT":0.00646339,"MEAN_MOTION_DDOT":0.00020134038},{"OBJECT_NAME":"STARLINK-1955","OBJECT_ID":"2021-009J","EPOCH":"2026-03-15T00:14:32.315136","MEAN_MOTION":16.07368236,"ECCENTRICITY":0.00059431,"INCLINATION":53.0287,"RA_OF_ASC_NODE":297.4246,"ARG_OF_PERICENTER":243.2844,"MEAN_ANOMALY":116.758,"EPHEMERIS_TYPE":0,"CLASSIFICATION_TYPE":"U","NORAD_CAT_ID":47556,"ELEMENT_SET_NO":999,"REV_AT_EPOCH":28244,"BSTAR":0.0014254006,"MEAN_MOTION_DOT":0.01153493,"MEAN_MOTION_DDOT":0.00078588288},{"OBJECT_NAME":"STARLINK-1971","OBJECT_ID":"2021-009AA","EPOCH":"2026-03-15T08:00:01.999872","MEAN_MOTION":15.9294693,"ECCENTRICITY":0.00026659,"INCLINATION":53.0372,"RA_OF_ASC_NODE":293.2477,"ARG_OF_PERICENTER":279.9661,"MEAN_ANOMALY":1.4391,"EPHEMERIS_TYPE":0,"CLASSIFICATION_TYPE":"U","NORAD_CAT_ID":47572,"ELEMENT_SET_NO":999,"REV_AT_EPOCH":610,"BSTAR":0.0012660037,"MEAN_MOTION_DOT":0.0044869,"MEAN_MOTION_DDOT":8.966876e-5},{"OBJECT_NAME":"STARLINK-2022","OBJECT_ID":"2021-012Z","EPOCH":"2026-03-15T05:21:29.867904","MEAN_MOTION":16.01728597,"ECCENTRICITY":0.00049966,"INCLINATION":53.0083,"RA_OF_ASC_NODE":309.0492,"ARG_OF_PERICENTER":227.1339,"MEAN_ANOMALY":132.9272,"EPHEMERIS_TYPE":0,"CLASSIFICATION_TYPE":"U","NORAD_CAT_ID":47643,"ELEMENT_SET_NO":999,"REV_AT_EPOCH":28218,"BSTAR":0.0012526969,"MEAN_MOTION_DOT":0.0072364,"MEAN_MOTION_DDOT":0.00025642376},{"OBJECT_NAME":"STARLINK-2488","OBJECT_ID":"2021-027BF","EPOCH":"2026-03-15T06:00:00.999648","MEAN_MOTION":15.99941835,"ECCENTRICITY":0.00039918,"INCLINATION":53.0354,"RA_OF_ASC_NODE":79.4754,"ARG_OF_PERICENTER":95.4666,"MEAN_ANOMALY":59.8871,"EPHEMERIS_TYPE":0,"CLASSIFICATION_TYPE":"U","NORAD_CAT_ID":48145,"ELEMENT_SET_NO":999,"REV_AT_EPOCH":598,"BSTAR":0.0012918874,"MEAN_MOTION_DOT":0.00672699,"MEAN_MOTION_DDOT":0.00021491471},{"OBJECT_NAME":"STARLINK-3050","OBJECT_ID":"2021-082BC","EPOCH":"2026-03-15T10:27:57.235968","MEAN_MOTION":16.06798855,"ECCENTRICITY":0.0004473,"INCLINATION":69.9933,"RA_OF_ASC_NODE":245.3792,"ARG_OF_PERICENTER":252.997,"MEAN_ANOMALY":107.0754,"EPHEMERIS_TYPE":0,"CLASSIFICATION_TYPE":"U","NORAD_CAT_ID":49180,"ELEMENT_SET_NO":999,"REV_AT_EPOCH":24886,"BSTAR":0.0027148,"MEAN_MOTION_DOT":0.01983365,"MEAN_MOTION_DDOT":0.0031302},{"OBJECT_NAME":"STARLINK-3149","OBJECT_ID":"2021-104R","EPOCH":"2026-03-15T08:00:01.999872","MEAN_MOTION":15.94278017,"ECCENTRICITY":9.602e-5,"INCLINATION":53.2151,"RA_OF_ASC_NODE":191.1501,"ARG_OF_PERICENTER":65.1456,"MEAN_ANOMALY":357.0965,"EPHEMERIS_TYPE":0,"CLASSIFICATION_TYPE":"U","NORAD_CAT_ID":49423,"ELEMENT_SET_NO":999,"REV_AT_EPOCH":588,"BSTAR":0.0031972816,"MEAN_MOTION_DOT":0.01210536,"MEAN_MOTION_DDOT":0.00070005745},{"OBJECT_NAME":"STARLINK-3258","OBJECT_ID":"2021-125BC","EPOCH":"2026-03-14T20:20:02.677344","MEAN_MOTION":16.06066146,"ECCENTRICITY":1.766e-5,"INCLINATION":53.2078,"RA_OF_ASC_NODE":200.4371,"ARG_OF_PERICENTER":229.8611,"MEAN_ANOMALY":130.2407,"EPHEMERIS_TYPE":0,"CLASSIFICATION_TYPE":"U","NORAD_CAT_ID":50206,"ELEMENT_SET_NO":999,"REV_AT_EPOCH":23565,"BSTAR":0.001526472,"MEAN_MOTION_DOT":0.01136154,"MEAN_MOTION_DDOT":0.00074018601},{"OBJECT_NAME":"TRANSPORTER-3 OBJECT CN","OBJECT_ID":"2022-002CN","EPOCH":"2026-03-11T11:00:35.575776","MEAN_MOTION":15.9331549,"ECCENTRICITY":0.0004678,"INCLINATION":97.2916,"RA_OF_ASC_NODE":154.5314,"ARG_OF_PERICENTER":253.1627,"MEAN_ANOMALY":106.9135,"EPHEMERIS_TYPE":0,"CLASSIFICATION_TYPE":"U","NORAD_CAT_ID":51068,"ELEMENT_SET_NO":999,"REV_AT_EPOCH":23197,"BSTAR":0.0013253,"MEAN_MOTION_DOT":0.00466381,"MEAN_MOTION_DDOT":8.7607e-5},{"OBJECT_NAME":"STARLINK-3767","OBJECT_ID":"2022-045AX","EPOCH":"2026-03-15T08:28:01.368768","MEAN_MOTION":16.2629752,"ECCENTRICITY":0.0002255,"INCLINATION":53.2049,"RA_OF_ASC_NODE":141.9667,"ARG_OF_PERICENTER":324.2063,"MEAN_ANOMALY":35.8828,"EPHEMERIS_TYPE":0,"CLASSIFICATION_TYPE":"U","NORAD_CAT_ID":52376,"ELEMENT_SET_NO":999,"REV_AT_EPOCH":21708,"BSTAR":0.00074036,"MEAN_MOTION_DOT":0.02467523,"MEAN_MOTION_DDOT":1.1979e-5},{"OBJECT_NAME":"STARLINK-3855","OBJECT_ID":"2022-049Z","EPOCH":"2026-03-15T08:34:38.061408","MEAN_MOTION":16.0869923,"ECCENTRICITY":0.0001584,"INCLINATION":53.2131,"RA_OF_ASC_NODE":7.3002,"ARG_OF_PERICENTER":112.8095,"MEAN_ANOMALY":247.3108,"EPHEMERIS_TYPE":0,"CLASSIFICATION_TYPE":"U","NORAD_CAT_ID":52474,"ELEMENT_SET_NO":999,"REV_AT_EPOCH":21347,"BSTAR":0.0013596,"MEAN_MOTION_DOT":0.01192847,"MEAN_MOTION_DDOT":0.00087318},{"OBJECT_NAME":"NUSAT-28 (ALICE LEE)","OBJECT_ID":"2022-057R","EPOCH":"2026-03-15T07:19:06.237120","MEAN_MOTION":16.16277234,"ECCENTRICITY":0.00099396,"INCLINATION":97.5001,"RA_OF_ASC_NODE":225.006,"ARG_OF_PERICENTER":278.7334,"MEAN_ANOMALY":81.2827,"EPHEMERIS_TYPE":0,"CLASSIFICATION_TYPE":"U","NORAD_CAT_ID":52747,"ELEMENT_SET_NO":999,"REV_AT_EPOCH":21295,"BSTAR":0.0012021375,"MEAN_MOTION_DOT":0.01727859,"MEAN_MOTION_DDOT":2.471902e-6},{"OBJECT_NAME":"NUSAT-31 (RUBY PAYNE-S)","OBJECT_ID":"2022-057W","EPOCH":"2026-03-15T06:00:45.873216","MEAN_MOTION":15.964265,"ECCENTRICITY":0.00053078,"INCLINATION":97.638,"RA_OF_ASC_NODE":244.4636,"ARG_OF_PERICENTER":282.2637,"MEAN_ANOMALY":77.8044,"EPHEMERIS_TYPE":0,"CLASSIFICATION_TYPE":"U","NORAD_CAT_ID":52752,"ELEMENT_SET_NO":999,"REV_AT_EPOCH":21285,"BSTAR":0.0011269921,"MEAN_MOTION_DOT":0.00468167,"MEAN_MOTION_DDOT":9.2202778e-5},{"OBJECT_NAME":"STARLINK-4038","OBJECT_ID":"2022-083U","EPOCH":"2026-03-15T08:00:01.999872","MEAN_MOTION":16.00130219,"ECCENTRICITY":0.00105897,"INCLINATION":53.2004,"RA_OF_ASC_NODE":91.21,"ARG_OF_PERICENTER":32.2934,"MEAN_ANOMALY":357.5505,"EPHEMERIS_TYPE":0,"CLASSIFICATION_TYPE":"U","NORAD_CAT_ID":53150,"ELEMENT_SET_NO":999,"REV_AT_EPOCH":596,"BSTAR":0.00085822584,"MEAN_MOTION_DOT":0.00453855,"MEAN_MOTION_DDOT":9.9969219e-5},{"OBJECT_NAME":"STARLINK-4404","OBJECT_ID":"2022-084G","EPOCH":"2026-03-15T08:00:01.999872","MEAN_MOTION":15.9579995,"ECCENTRICITY":0.00012752,"INCLINATION":97.6103,"RA_OF_ASC_NODE":160.981,"ARG_OF_PERICENTER":355.7747,"MEAN_ANOMALY":5.9531,"EPHEMERIS_TYPE":0,"CLASSIFICATION_TYPE":"U","NORAD_CAT_ID":53195,"ELEMENT_SET_NO":999,"REV_AT_EPOCH":601,"BSTAR":0.0013523203,"MEAN_MOTION_DOT":0.00542202,"MEAN_MOTION_DDOT":0.00012371745}]
