STARLINK-1712           
1 46581U 20070BB  26074.13131644  .01991310  44060-2  13257-2 0  9995
2 46581  53.0220  51.7636 0001074  63.8722 296.2425 16.17437127301739
STARLINK-1814           
1 46712U 20073AU  26074.24709306  .00646339  20134-3  11572-2 0  9994
2 46712  53.0346 156.1506 0010566   1.4798 358.6261 16.01056816298817
STARLINK-1955           
1 47556U 21009J   26074.01009624  .01153493  78588-3  14254-2 0  9993
2 47556  53.0287 297.4246 0005943 243.2844 116.7580 16.07368236282446
STARLINK-1971           
1 47572U 21009AA  26074.33335648  .00448690  89669-4  12660-2 0  9991
2 47572  53.0372 293.2477 0002665 279.9661   1.4391 15.92946930  6103
STARLINK-2022           
1 47643U 21012Z   26074.22326236  .00723640  25642-3  12527-2 0  9998
2 47643  53.0083 309.0492 0004996 227.1339 132.9272 16.01728597282180
STARLINK-2488           
1 48145U 21027BF  26074.25001157  .00672699  21491-3  12919-2 0  9997
2 48145  53.0354  79.4754 0003991  95.4666  59.8871 15.99941835  5982
STARLINK-3050           
1 49180U 21082BC  26074.43607912  .01983365  31302-2  27148-2 0  9996
2 49180  69.9933 245.3792 0004473 252.9970 107.0754 16.06798855248864
STARLINK-3149           
1 49423U 21104R   26074.33335648  .01210536  70006-3  31973-2 0  9993
2 49423  53.2151 191.1501 0000960  65.1456 357.0965 15.94278017  5881
STARLINK-3258           
1 50206U 21125BC  26073.84725321  .01136154  74019-3  15265-2 0  9990
2 50206  53.2078 200.4371 0000176 229.8611 130.2407 16.06066146235654
TRANSPORTER-3 OBJECT CN 
1 51068U 22002CN  26070.45874509  .00466381  87607-4  13253-2 0  9999
2 51068  97.2916 154.5314 0004678 253.1627 106.9135 15.93315490231977
STARLINK-3767           
1 52376U 22045AX  26074.35279362  .02467523  11979-4  74036-3 0  9995
2 52376  53.2049 141.9667 0002255 324.2063  35.8828 16.26297520217088
STARLINK-3855           
1 52474U 22049Z   26074.35738497  .01192847  87318-3  13596-2 0  9992
2 52474  53.2131   7.3002 0001584 112.8095 247.3108 16.08699230213471
NUSAT-28 (ALICE LEE)    
1 52747U 22057R   26074.30493330  .01727859  24719-5  12021-2 0  9990
2 52747  97.5001 225.0060 0009939 278.7334  81.2827 16.16277234212954
NUSAT-31 (RUBY PAYNE-S) 
1 52752U 22057W   26074.25053094  .00468167  92203-4  11270-2 0  9999
2 52752  97.6380 244.4636 0005307 282.2637  77.8044 15.96426500212856
STARLINK-4038           
1 53150U 22083U   26074.33335648  .00453855  99969-4  85823-3 0  9998
2 53150  53.2004  91.2100 0010589  32.2934 357.5505 16.00130219  5962
STARLINK-4404           
1 53195U 22084G   26074.33335648  .00542202  12372-3  13523-2 0  9992
2 53195  97.6103 160.9810 0001275 355.7747   5.9531 15.95799950  6018
